{"type": "FeatureCollection", "features": [ {"type": "Feature", "properties": {"norad_id": 66935, "name": "STARLINK-36127", "group": "last-30-days", "lat": -29.78921650137819, "lon": -11.21479878791779, "alt_km": 338.66342624638037, "timestamp": "2025-12-19T22:41:51.098520+00:00", "meta": {"OBJECT_NAME": "STARLINK-36127", "OBJECT_ID": "2025-286L", "EPOCH": "2025-12-19T18:00:00.998784", "MEAN_MOTION": 15.79202667, "ECCENTRICITY": 9.28e-05, "INCLINATION": 53.1551, "RA_OF_ASC_NODE": 15.1846, "ARG_OF_PERICENTER": 81.3591, "MEAN_ANOMALY": 207.2401, "EPHEMERIS_TYPE": 0, "CLASSIFICATION_TYPE": "U", "NORAD_CAT_ID": 66935, "ELEMENT_SET_NO": 999, "REV_AT_EPOCH": 311, "BSTAR": -0.0091557, "MEAN_MOTION_DOT": -0.01478545, "MEAN_MOTION_DDOT": 0}, "tle": {"line1": "1 66935U 25286L   25353.75001156 -.01478545  00000+0 -91557-2 0  9999", "line2": "2 66935  53.1551  15.1846 0000928  81.3591 207.2401 15.79202667  3118"}}, "geometry": {"type": "Point", "coordinates": [-11.21479878791779, -29.78921650137819]}}, {"type": "Feature", "properties": {"norad_id": 66936, "name": "STARLINK-36160", "group": "last-30-days", "lat": -28.274864393526258, "lon": -9.58470830063011, "alt_km": 338.4821572089222, "timestamp": "2025-12-19T22:41:51.098530+00:00", "meta": {"OBJECT_NAME": "STARLINK-36160", "OBJECT_ID": "2025-286M", "EPOCH": "2025-12-19T18:00:00.998784", "MEAN_MOTION": 15.79183862, "ECCENTRICITY": 8.14e-05, "INCLINATION": 53.1552, "RA_OF_ASC_NODE": 15.1806, "ARG_OF_PERICENTER": 70.5018, "MEAN_ANOMALY": 220.1958, "EPHEMERIS_TYPE": 0, "CLASSIFICATION_TYPE": "U", "NORAD_CAT_ID": 66936, "ELEMENT_SET_NO": 999, "REV_AT_EPOCH": 311, "BSTAR": -0.0092137, "MEAN_MOTION_DOT": -0.01485605, "MEAN_MOTION_DDOT": 0}, "tle": {"line1": "1 66936U 25286M   25353.75001156 -.01485605  00000+0 -92137-2 0  9990", "line2": "2 66936  53.1552  15.1806 0000814  70.5018 220.1958 15.79183862  3110"}}, "geometry": {"type": "Point", "coordinates": [-9.58470830063011, -28.274864393526258]}}, {"type": "Feature", "properties": {"norad_id": 66937, "name": "STARLINK-36165", "group": "last-30-days", "lat": -26.72846183892982, "lon": -7.988345496167498, "alt_km": 338.41734627024107, "timestamp": "2025-12-19T22:41:51.098540+00:00", "meta": {"OBJECT_NAME": "STARLINK-36165", "OBJECT_ID": "2025-286N", "EPOCH": "2025-12-19T18:00:00.998784", "MEAN_MOTION": 15.79160712, "ECCENTRICITY": 9.29e-05, "INCLINATION": 53.1552, "RA_OF_ASC_NODE": 15.1757, "ARG_OF_PERICENTER": 67.1163, "MEAN_ANOMALY": 225.702, "EPHEMERIS_TYPE": 0, "CLASSIFICATION_TYPE": "U", "NORAD_CAT_ID": 66937, "ELEMENT_SET_NO": 999, "REV_AT_EPOCH": 311, "BSTAR": -0.0092684, "MEAN_MOTION_DOT": -0.01492043, "MEAN_MOTION_DDOT": 0}, "tle": {"line1": "1 66937U 25286N   25353.75001156 -.01492043  00000+0 -92684-2 0  9992", "line2": "2 66937  53.1552  15.1757 0000929  67.1163 225.7020 15.79160712  3116"}}, "geometry": {"type": "Point", "coordinates": [-7.988345496167498, -26.72846183892982]}}, {"type": "Feature", "properties": {"norad_id": 66938, "name": "STARLINK-36155", "group": "last-30-days", "lat": -25.15708545021501, "lon": -6.427827555294017, "alt_km": 338.45320831626213, "timestamp": "2025-12-19T22:41:51.098550+00:00", "meta": {"OBJECT_NAME": "STARLINK-36155", "OBJECT_ID": "2025-286P", "EPOCH": "2025-12-19T18:00:00.998784", "MEAN_MOTION": 15.79134198, "ECCENTRICITY": 8.33e-05, "INCLINATION": 53.1551, "RA_OF_ASC_NODE": 15.1709, "ARG_OF_PERICENTER": 78.2709, "MEAN_ANOMALY": 216.6768, "EPHEMERIS_TYPE": 0, "CLASSIFICATION_TYPE": "U", "NORAD_CAT_ID": 66938, "ELEMENT_SET_NO": 999, "REV_AT_EPOCH": 311, "BSTAR": -0.0093145, "MEAN_MOTION_DOT": -0.01496899, "MEAN_MOTION_DDOT": 0}, "tle": {"line1": "1 66938U 25286P   25353.75001156 -.01496899  00000+0 -93145-2 0  9999", "line2": "2 66938  53.1551  15.1709 0000833  78.2709 216.6768 15.79134198  3113"}}, "geometry": {"type": "Point", "coordinates": [-6.427827555294017, -25.15708545021501]}}, {"type": "Feature", "properties": {"norad_id": 66939, "name": "STARLINK-36154", "group": "last-30-days", "lat": -21.862809124828583, "lon": -3.32680688408729, "alt_km": 338.3551366146312, "timestamp": "2025-12-19T22:41:51.098560+00:00", "meta": {"OBJECT_NAME": "STARLINK-36154", "OBJECT_ID": "2025-286Q", "EPOCH": "2025-12-19T18:00:00.998784", "MEAN_MOTION": 15.79059632, "ECCENTRICITY": 9.13e-05, "INCLINATION": 53.155, "RA_OF_ASC_NODE": 15.1619, "ARG_OF_PERICENTER": 72.9413, "MEAN_ANOMALY": 226.4237, "EPHEMERIS_TYPE": 0, "CLASSIFICATION_TYPE": "U", "NORAD_CAT_ID": 66939, "ELEMENT_SET_NO": 999, "REV_AT_EPOCH": 311, "BSTAR": -0.0094671, "MEAN_MOTION_DOT": -0.01513932, "MEAN_MOTION_DDOT": 0}, "tle": {"line1": "1 66939U 25286Q   25353.75001156 -.01513932  00000+0 -94671-2 0  9993", "line2": "2 66939  53.1550  15.1619 0000913  72.9413 226.4237 15.79059632  3114"}}, "geometry": {"type": "Point", "coordinates": [-3.32680688408729, -21.862809124828583]}}, {"type": "Feature", "properties": {"norad_id": 66940, "name": "STARLINK-36121", "group": "last-30-days", "lat": -20.28178905180289, "lon": -1.9090625586787902, "alt_km": 338.3003002028199, "timestamp": "2025-12-19T22:41:51.098570+00:00", "meta": {"OBJECT_NAME": "STARLINK-36121", "OBJECT_ID": "2025-286R", "EPOCH": "2025-12-19T18:00:00.998784", "MEAN_MOTION": 15.79041335, "ECCENTRICITY": 6.48e-05, "INCLINATION": 53.1548, "RA_OF_ASC_NODE": 15.1573, "ARG_OF_PERICENTER": 82.7701, "MEAN_ANOMALY": 218.6709, "EPHEMERIS_TYPE": 0, "CLASSIFICATION_TYPE": "U", "NORAD_CAT_ID": 66940, "ELEMENT_SET_NO": 999, "REV_AT_EPOCH": 311, "BSTAR": -0.0095088, "MEAN_MOTION_DOT": -0.01518504, "MEAN_MOTION_DDOT": 0}, "tle": {"line1": "1 66940U 25286R   25353.75001156 -.01518504  00000+0 -95088-2 0  9998", "line2": "2 66940  53.1548  15.1573 0000648  82.7701 218.6709 15.79041335  3114"}}, "geometry": {"type": "Point", "coordinates": [-1.9090625586787902, -20.28178905180289]}}, {"type": "Feature", "properties": {"norad_id": 66941, "name": "STARLINK-36088", "group": "last-30-days", "lat": -23.4625437594409, "lon": -4.806377051015297, "alt_km": 338.4386705293691, "timestamp": "2025-12-19T22:41:51.098593+00:00", "meta": {"OBJECT_NAME": "STARLINK-36088", "OBJECT_ID": "2025-286S", "EPOCH": "2025-12-19T18:00:00.998784", "MEAN_MOTION": 15.79085022, "ECCENTRICITY": 6.53e-05, "INCLINATION": 53.1549, "RA_OF_ASC_NODE": 15.166, "ARG_OF_PERICENTER": 81.5965, "MEAN_ANOMALY": 215.6384, "EPHEMERIS_TYPE": 0, "CLASSIFICATION_TYPE": "U", "NORAD_CAT_ID": 66941, "ELEMENT_SET_NO": 999, "REV_AT_EPOCH": 311, "BSTAR": -0.0093952, "MEAN_MOTION_DOT": -0.01505199, "MEAN_MOTION_DDOT": 0}, "tle": {"line1": "1 66941U 25286S   25353.75001156 -.01505199  00000+0 -93952-2 0  9993", "line2": "2 66941  53.1549  15.1660 0000653  81.5965 215.6384 15.79085022  3115"}}, "geometry": {"type": "Point", "coordinates": [-4.806377051015297, -23.4625437594409]}}, {"type": "Feature", "properties": {"norad_id": 66942, "name": "STARLINK-36100", "group": "last-30-days", "lat": -18.660452981201203, "lon": -0.49463085612222746, "alt_km": 338.1836512319469, "timestamp": "2025-12-19T22:41:51.098608+00:00", "meta": {"OBJECT_NAME": "STARLINK-36100", "OBJECT_ID": "2025-286T", "EPOCH": "2025-12-19T18:00:00.998784", "MEAN_MOTION": 15.79015684, "ECCENTRICITY": 7.15e-05, "INCLINATION": 53.1549, "RA_OF_ASC_NODE": 15.1529, "ARG_OF_PERICENTER": 75.4348, "MEAN_ANOMALY": 228.13, "EPHEMERIS_TYPE": 0, "CLASSIFICATION_TYPE": "U", "NORAD_CAT_ID": 66942, "ELEMENT_SET_NO": 999, "REV_AT_EPOCH": 304, "BSTAR": -0.0095724, "MEAN_MOTION_DOT": -0.0152588, "MEAN_MOTION_DDOT": 0}, "tle": {"line1": "1 66942U 25286T   25353.75001156 -.01525880  00000+0 -95724-2 0  9992", "line2": "2 66942  53.1549  15.1529 0000715  75.4348 228.1300 15.79015684  3042"}}, "geometry": {"type": "Point", "coordinates": [-0.49463085612222746, -18.660452981201203]}}, {"type": "Feature", "properties": {"norad_id": 66943, "name": "STARLINK-36109", "group": "last-30-days", "lat": -16.904246394130883, "lon": 0.9970462155454235, "alt_km": 338.24140914566124, "timestamp": "2025-12-19T22:41:51.098619+00:00", "meta": {"OBJECT_NAME": "STARLINK-36109", "OBJECT_ID": "2025-286U", "EPOCH": "2025-12-19T18:00:00.998784", "MEAN_MOTION": 15.78961141, "ECCENTRICITY": 6.37e-05, "INCLINATION": 53.1548, "RA_OF_ASC_NODE": 15.148, "ARG_OF_PERICENTER": 86.0128, "MEAN_ANOMALY": 219.8539, "EPHEMERIS_TYPE": 0, "CLASSIFICATION_TYPE": "U", "NORAD_CAT_ID": 66943, "ELEMENT_SET_NO": 999, "REV_AT_EPOCH": 304, "BSTAR": -0.009671, "MEAN_MOTION_DOT": -0.01536231, "MEAN_MOTION_DDOT": 0}, "tle": {"line1": "1 66943U 25286U   25353.75001156 -.01536231  00000+0 -96710-2 0  9991", "line2": "2 66943  53.1548  15.1480 0000637  86.0128 219.8539 15.78961141  3043"}}, "geometry": {"type": "Point", "coordinates": [0.9970462155454235, -16.904246394130883]}}, {"type": "Feature", "properties": {"norad_id": 66944, "name": "STARLINK-36112", "group": "last-30-days", "lat": -15.302876225326928, "lon": 2.325497662399848, "alt_km": 338.1670064222526, "timestamp": "2025-12-19T22:41:51.098629+00:00", "meta": {"OBJECT_NAME": "STARLINK-36112", "OBJECT_ID": "2025-286V", "EPOCH": "2025-12-19T18:00:00.998784", "MEAN_MOTION": 15.78941113, "ECCENTRICITY": 6.64e-05, "INCLINATION": 53.1549, "RA_OF_ASC_NODE": 15.1437, "ARG_OF_PERICENTER": 89.5541, "MEAN_ANOMALY": 218.3789, "EPHEMERIS_TYPE": 0, "CLASSIFICATION_TYPE": "U", "NORAD_CAT_ID": 66944, "ELEMENT_SET_NO": 999, "REV_AT_EPOCH": 311, "BSTAR": -0.0097052, "MEAN_MOTION_DOT": -0.01539758, "MEAN_MOTION_DDOT": 0}, "tle": {"line1": "1 66944U 25286V   25353.75001156 -.01539758  00000+0 -97052-2 0  9999", "line2": "2 66944  53.1549  15.1437 0000664  89.5541 218.3789 15.78941113  3110"}}, "geometry": {"type": "Point", "coordinates": [2.325497662399848, -15.302876225326928]}}]}